OBJECT_NAME,OBJECT_ID,EPOCH,MEAN_MOTION,ECCENTRICITY,INCLINATION,RA_OF_ASC_NODE,ARG_OF_PERICENTER,MEAN_ANOMALY,EPHEMERIS_TYPE,CLASSIFICATION_TYPE,NORAD_CAT_ID,ELEMENT_SET_NO,REV_AT_EPOCH,BSTAR,MEAN_MOTION_DOT,MEAN_MOTION_DDOT
IRIDIUM 138,2017-083B,2026-07-07T21:33:23.095008,14.34217208,.0001997,86.3993,313.0558,93.4404,266.7020,0,U,43071,999,44710,.56191E-4,.177E-5,0
IRIDIUM 116,2017-083C,2026-07-07T20:47:42.963936,14.34219217,.0002352,86.3981,313.3560,100.7298,259.4163,0,U,43072,999,44713,.68979E-4,.213E-5,0
IRIDIUM 130,2017-083D,2026-07-07T21:42:31.061088,14.34215914,.0002006,86.3984,313.6189,107.0486,253.0930,0,U,43073,999,44708,.64867E-4,.201E-5,0
IRIDIUM 151,2017-083E,2026-07-07T17:45:02.977056,14.34218756,.0002225,86.3985,313.4674,94.2777,265.8673,0,U,43074,999,44708,.26326E-4,.94E-6,0
IRIDIUM 134,2017-083F,2026-07-07T20:20:19.129632,14.34217138,.0002051,86.3982,313.4306,94.9782,265.1648,0,U,43075,999,44706,-.37297E-4,-.85E-6,0
IRIDIUM 137,2017-083G,2026-07-07T20:38:35.281248,14.34216620,.0002621,86.3985,313.5185,96.6791,263.4703,0,U,43076,999,44713,.68212E-4,.211E-5,0
IRIDIUM 141,2017-083H,2026-07-07T20:29:27.091392,14.34218111,.0002181,86.3981,313.3504,92.0534,268.0912,0,U,43077,999,44713,.10517E-4,.49E-6,0
IRIDIUM 153,2017-083J,2026-07-07T19:20:35.369088,14.34216782,.0002104,86.3963,281.8510,95.1455,264.9981,0,U,43078,999,44823,.68231E-4,.211E-5,0
IRIDIUM 131,2017-083K,2026-07-07T18:30:43.133184,14.34217670,.0002129,86.3984,313.5723,93.1304,267.0135,0,U,43079,999,44705,-.68207E-5,.1E-7,0
IRIDIUM 144,2018-030A,2026-07-07T19:29:43.393056,14.34217962,.0002354,86.3961,281.7768,97.7724,262.3739,0,U,43249,999,43309,.13916E-4,.59E-6,0
IRIDIUM 149,2018-030B,2026-07-07T19:38:51.366048,14.34216600,.0002181,86.3958,281.7416,94.2134,265.9311,0,U,43250,999,43311,.29367E-4,.102E-5,0
IRIDIUM 157,2018-030C,2026-07-08T04:28:35.475744,14.34216315,.000221,86.3961,281.6410,92.0548,268.0901,0,U,43251,999,43314,.58292E-4,.183E-5,0
IRIDIUM 140,2018-030D,2026-07-07T17:12:43.089696,14.34219440,.0002222,86.3962,281.8495,95.8702,264.2747,0,U,43252,999,43313,.42107E-4,.138E-5,0
IRIDIUM 145,2018-030E,2026-07-08T04:37:43.025376,14.34215876,.0002376,86.3962,281.6224,101.0674,259.0789,0,U,43253,999,43313,.27637E-4,.97E-6,0
IRIDIUM 146,2018-030F,2026-07-07T18:07:31.346688,14.34213161,.0002763,86.3966,281.8185,102.2234,257.9271,0,U,43254,999,43308,.45781E-4,.148E-5,0
IRIDIUM 148,2018-030G,2026-07-07T17:21:51.460992,14.34217248,.0002324,86.3961,281.8745,92.9159,267.2303,0,U,43255,999,43311,.50726E-4,.162E-5,0
IRIDIUM 142,2018-030H,2026-07-07T19:57:07.452000,14.34216585,.0002363,86.3963,281.7174,97.8385,262.3080,0,U,43256,999,43309,.88397E-4,.267E-5,0
IRIDIUM 150,2018-030J,2026-07-07T19:11:27.193056,14.34218951,.0002241,86.3964,281.8482,96.5695,263.5756,0,U,43257,999,43311,.2878E-4,.1E-5,0
IRIDIUM 143,2018-030K,2026-07-07T18:44:03.323328,14.34216549,.0002365,86.3969,281.9481,100.2764,259.8699,0,U,43258,999,43304,.53132E-4,.169E-5,0
IRIDIUM 161,2018-047C,2026-07-08T02:33:55.939680,14.43283775,.0002368,86.4470,79.7235,79.2134,280.9334,0,U,43478,999,42815,.58102E-4,.216E-5,0
IRIDIUM 152,2018-047D,2026-07-08T02:27:06.964416,14.34218194,.0002186,86.3945,79.5869,82.1696,277.9748,0,U,43479,999,42548,.52858E-4,.168E-5,0
IRIDIUM 147,2018-047E,2026-07-08T02:36:13.919616,14.34216838,.0002248,86.3936,79.5883,89.3441,270.8012,0,U,43480,999,42548,.48272E-4,.155E-5,0
IRIDIUM 110,2018-047F,2026-07-08T02:45:22.264128,14.34216755,.0002246,86.3950,79.6797,75.9395,284.2050,0,U,43481,999,42547,.55589E-4,.175E-5,0
IRIDIUM 162,2018-047G,2026-07-08T02:24:51.712128,14.43282562,.0002212,86.4469,79.6170,84.1945,275.9508,0,U,43482,999,42814,.59094E-4,.219E-5,0
IRIDIUM 160,2018-061A,2026-07-08T01:27:22.468608,14.34216959,.0002271,86.3942,48.0673,85.3261,274.8194,0,U,43569,999,41636,.33673E-4,.114E-5,0
IRIDIUM 166,2018-061B,2026-07-08T00:23:26.377728,14.34217936,.0002231,86.3942,48.0359,89.2435,270.9017,0,U,43570,999,41638,.19469E-5,.25E-6,0
IRIDIUM 158,2018-061C,2026-07-08T01:18:14.315040,14.34217588,.0002123,86.3943,48.0306,87.1838,272.9601,0,U,43571,999,41635,.382E-4,.127E-5,0
IRIDIUM 165,2018-061D,2026-07-08T01:54:46.092096,14.34219198,.0002181,86.3944,48.0661,89.5756,270.5690,0,U,43572,999,41638,.26425E-4,.94E-6,0
IRIDIUM 155,2018-061E,2026-07-07T23:19:30.165888,14.34217487,.000213,86.3942,47.9793,87.9222,272.2218,0,U,43573,999,41633,.38228E-4,.127E-5,0
IRIDIUM 154,2018-061F,2026-07-08T00:32:34.289376,14.34216289,.0002313,86.3947,48.0926,90.3886,269.7574,0,U,43574,999,41639,.44964E-4,.146E-5,0
IRIDIUM 163,2018-061G,2026-07-08T01:45:38.315232,14.34216638,.0002182,86.3940,47.9860,84.6669,275.4776,0,U,43575,999,41637,.50653E-4,.162E-5,0
