IRIDIUM 138             
1 43071U 17083B   26188.89818397  .00000177  00000+0  56191-4 0  9992
2 43071  86.3993 313.0558 0001997  93.4404 266.7020 14.34217208447101
IRIDIUM 116             
1 43072U 17083C   26188.86646949  .00000213  00000+0  68979-4 0  9990
2 43072  86.3981 313.3560 0002352 100.7298 259.4163 14.34219217447136
IRIDIUM 130             
1 43073U 17083D   26188.90452617  .00000201  00000+0  64867-4 0  9992
2 43073  86.3984 313.6189 0002006 107.0486 253.0930 14.34215914447081
IRIDIUM 151             
1 43074U 17083E   26188.73961779  .00000094  00000+0  26326-4 0  9996
2 43074  86.3985 313.4674 0002225  94.2777 265.8673 14.34218756447085
IRIDIUM 134             
1 43075U 17083F   26188.84744363 -.00000085  00000+0 -37297-4 0  9998
2 43075  86.3982 313.4306 0002051  94.9782 265.1648 14.34217138447061
IRIDIUM 137             
1 43076U 17083G   26188.86013057  .00000211  00000+0  68212-4 0  9990
2 43076  86.3985 313.5185 0002621  96.6791 263.4703 14.34216620447139
IRIDIUM 141             
1 43077U 17083H   26188.85378578  .00000049  00000+0  10517-4 0  9996
2 43077  86.3981 313.3504 0002181  92.0534 268.0912 14.34218111447135
IRIDIUM 153             
1 43078U 17083J   26188.80596492  .00000211  00000+0  68231-4 0  9996
2 43078  86.3963 281.8510 0002104  95.1455 264.9981 14.34216782448238
IRIDIUM 131             
1 43079U 17083K   26188.77133256  .00000001  00000+0 -68207-5 0  9990
2 43079  86.3984 313.5723 0002129  93.1304 267.0135 14.34217670447050
IRIDIUM 144             
1 43249U 18030A   26188.81230779  .00000059  00000+0  13916-4 0  9993
2 43249  86.3961 281.7768 0002354  97.7724 262.3739 14.34217962433096
IRIDIUM 149             
1 43250U 18030B   26188.81865007  .00000102  00000+0  29367-4 0  9999
2 43250  86.3958 281.7416 0002181  94.2134 265.9311 14.34216600433115
IRIDIUM 157             
1 43251U 18030C   26189.18652171  .00000183  00000+0  58292-4 0  9995
2 43251  86.3961 281.6410 0002210  92.0548 268.0901 14.34216315433146
IRIDIUM 140             
1 43252U 18030D   26188.71716539  .00000138  00000+0  42107-4 0  9991
2 43252  86.3962 281.8495 0002222  95.8702 264.2747 14.34219440433136
IRIDIUM 145             
1 43253U 18030E   26189.19285909  .00000097  00000+0  27637-4 0  9992
2 43253  86.3962 281.6224 0002376 101.0674 259.0789 14.34215876433130
IRIDIUM 146             
1 43254U 18030F   26188.75522392  .00000148  00000+0  45781-4 0  9991
2 43254  86.3966 281.8185 0002763 102.2234 257.9271 14.34213161433080
IRIDIUM 148             
1 43255U 18030G   26188.72351228  .00000162  00000+0  50726-4 0  9998
2 43255  86.3961 281.8745 0002324  92.9159 267.2303 14.34217248433116
IRIDIUM 142             
1 43256U 18030H   26188.83133625  .00000267  00000+0  88397-4 0  9991
2 43256  86.3963 281.7174 0002363  97.8385 262.3080 14.34216585433090
IRIDIUM 150             
1 43257U 18030J   26188.79962029  .00000100  00000+0  28780-4 0  9991
2 43257  86.3964 281.8482 0002241  96.5695 263.5756 14.34218951433115
IRIDIUM 143             
1 43258U 18030K   26188.78059402  .00000169  00000+0  53132-4 0  9997
2 43258  86.3969 281.9481 0002365 100.2764 259.8699 14.34216549433045
IRIDIUM 161             
1 43478U 18047C   26189.10689745  .00000216  00000+0  58102-4 0  9990
2 43478  86.4470  79.7235 0002368  79.2134 280.9334 14.43283775428158
IRIDIUM 152             
1 43479U 18047D   26189.10216394  .00000168  00000+0  52858-4 0  9995
2 43479  86.3945  79.5869 0002186  82.1696 277.9748 14.34218194425481
IRIDIUM 147             
1 43480U 18047E   26189.10849444  .00000155  00000+0  48272-4 0  9996
2 43480  86.3936  79.5883 0002248  89.3441 270.8012 14.34216838425484
IRIDIUM 110             
1 43481U 18047F   26189.11484102  .00000175  00000+0  55589-4 0  9995
2 43481  86.3950  79.6797 0002246  75.9395 284.2050 14.34216755425471
IRIDIUM 162             
1 43482U 18047G   26189.10059852  .00000219  00000+0  59094-4 0  9999
2 43482  86.4469  79.6170 0002212  84.1945 275.9508 14.43282562428140
IRIDIUM 160             
1 43569U 18061A   26189.06067672  .00000114  00000+0  33673-4 0  9994
2 43569  86.3942  48.0673 0002271  85.3261 274.8194 14.34216959416365
IRIDIUM 166             
1 43570U 18061B   26189.01627752  .00000025  00000+0  19469-5 0  9991
2 43570  86.3942  48.0359 0002231  89.2435 270.9017 14.34217936416389
IRIDIUM 158             
1 43571U 18061C   26189.05433235  .00000127  00000+0  38200-4 0  9993
2 43571  86.3943  48.0306 0002123  87.1838 272.9601 14.34217588416358
IRIDIUM 165             
1 43572U 18061D   26189.07970014  .00000094  00000+0  26425-4 0  9996
2 43572  86.3944  48.0661 0002181  89.5756 270.5690 14.34219198416387
IRIDIUM 155             
1 43573U 18061E   26188.97187692  .00000127  00000+0  38228-4 0  9998
2 43573  86.3942  47.9793 0002130  87.9222 272.2218 14.34217487416333
IRIDIUM 154             
1 43574U 18061F   26189.02261909  .00000146  00000+0  44964-4 0  9995
2 43574  86.3947  48.0926 0002313  90.3886 269.7574 14.34216289416397
IRIDIUM 163             
1 43575U 18061G   26189.07336013  .00000162  00000+0  50653-4 0  9990
2 43575  86.3940  47.9860 0002182  84.6669 275.4776 14.34216638416379
